{"type": "FeatureCollection", "features": [ {"type": "Feature", "properties": {"norad_id": 34433, "name": "COSMOS 2251 DEB", "group": "cosmos-2251-debris", "lat": 63.9780722612717, "lon": 164.3642838947617, "alt_km": 949.8833211089968, "timestamp": "2025-12-27T17:24:57.802041+00:00", "meta": {"OBJECT_NAME": "COSMOS 2251 DEB", "OBJECT_ID": "1993-036SA", "EPOCH": "2025-12-26T08:47:50.388288", "MEAN_MOTION": 14.12917761, "ECCENTRICITY": 0.01529044, "INCLINATION": 74.0102, "RA_OF_ASC_NODE": 130.8036, "ARG_OF_PERICENTER": 266.0106, "MEAN_ANOMALY": 92.3544, "EPHEMERIS_TYPE": 0, "CLASSIFICATION_TYPE": "U", "NORAD_CAT_ID": 34433, "ELEMENT_SET_NO": 999, "REV_AT_EPOCH": 86142, "BSTAR": 0.0016772605, "MEAN_MOTION_DOT": 3.465e-05, "MEAN_MOTION_DDOT": 0}, "tle": {"line1": "1 34433U 93036SA  25360.36655542  .00003465  00000+0  16773-2 0  9993", "line2": "2 34433  74.0102 130.8036 0152904 266.0106  92.3544 14.12917761861423"}}, "geometry": {"type": "Point", "coordinates": [164.3642838947617, 63.9780722612717]}}, {"type": "Feature", "properties": {"norad_id": 34434, "name": "COSMOS 2251 DEB", "group": "cosmos-2251-debris", "lat": 19.35717430288051, "lon": 158.87413938448557, "alt_km": 776.6574146356579, "timestamp": "2025-12-27T17:24:57.802052+00:00", "meta": {"OBJECT_NAME": "COSMOS 2251 DEB", "OBJECT_ID": "1993-036SB", "EPOCH": "2025-12-27T08:37:15.748320", "MEAN_MOTION": 13.89895091, "ECCENTRICITY": 0.0273388, "INCLINATION": 74.0626, "RA_OF_ASC_NODE": 345.2586, "ARG_OF_PERICENTER": 118.9799, "MEAN_ANOMALY": 5.7939, "EPHEMERIS_TYPE": 0, "CLASSIFICATION_TYPE": "U", "NORAD_CAT_ID": 34434, "ELEMENT_SET_NO": 999, "REV_AT_EPOCH": 84169, "BSTAR": 0.0019829, "MEAN_MOTION_DOT": 3.277e-05, "MEAN_MOTION_DDOT": 0}, "tle": {"line1": "1 34434U 93036SB  25361.35921005  .00003277  00000+0  19829-2 0  9990", "line2": "2 34434  74.0626 345.2586 0273388 118.9799   5.7939 13.89895091841697"}}, "geometry": {"type": "Point", "coordinates": [158.87413938448557, 19.35717430288051]}}, {"type": "Feature", "properties": {"norad_id": 34446, "name": "COSMOS 2251 DEB", "group": "cosmos-2251-debris", "lat": -45.65540627016409, "lon": 12.153820020083483, "alt_km": 764.6059909733558, "timestamp": "2025-12-27T17:24:57.802061+00:00", "meta": {"OBJECT_NAME": "COSMOS 2251 DEB", "OBJECT_ID": "1993-036SP", "EPOCH": "2025-12-27T11:00:47.581920", "MEAN_MOTION": 14.4936839, "ECCENTRICITY": 0.0050418, "INCLINATION": 74.0414, "RA_OF_ASC_NODE": 29.678, "ARG_OF_PERICENTER": 164.1042, "MEAN_ANOMALY": 196.1715, "EPHEMERIS_TYPE": 0, "CLASSIFICATION_TYPE": "U", "NORAD_CAT_ID": 34446, "ELEMENT_SET_NO": 999, "REV_AT_EPOCH": 88907, "BSTAR": 0.00013137, "MEAN_MOTION_DOT": 4.82e-06, "MEAN_MOTION_DDOT": 0}, "tle": {"line1": "1 34446U 93036SP  25361.45888405  .00000482  00000+0  13137-3 0  9992", "line2": "2 34446  74.0414  29.6780 0050418 164.1042 196.1715 14.49368390889070"}}, "geometry": {"type": "Point", "coordinates": [12.153820020083483, -45.65540627016409]}}, {"type": "Feature", "properties": {"norad_id": 34449, "name": "COSMOS 2251 DEB", "group": "cosmos-2251-debris", "lat": 50.58893035724472, "lon": 60.708241749835146, "alt_km": 560.5334113962126, "timestamp": "2025-12-27T17:24:57.802072+00:00", "meta": {"OBJECT_NAME": "COSMOS 2251 DEB", "OBJECT_ID": "1993-036SS", "EPOCH": "2025-12-26T12:50:59.003232", "MEAN_MOTION": 14.95603421, "ECCENTRICITY": 0.0022706, "INCLINATION": 74.0324, "RA_OF_ASC_NODE": 42.7181, "ARG_OF_PERICENTER": 76.9534, "MEAN_ANOMALY": 50.6798, "EPHEMERIS_TYPE": 0, "CLASSIFICATION_TYPE": "U", "NORAD_CAT_ID": 34449, "ELEMENT_SET_NO": 999, "REV_AT_EPOCH": 88899, "BSTAR": 0.002431, "MEAN_MOTION_DOT": 0.00027206, "MEAN_MOTION_DDOT": 0}, "tle": {"line1": "1 34449U 93036SS  25360.53540513  .00027206  00000+0  24310-2 0  9995", "line2": "2 34449  74.0324  42.7181 0022706  76.9534  50.6798 14.95603421888992"}}, "geometry": {"type": "Point", "coordinates": [60.708241749835146, 50.58893035724472]}}, {"type": "Feature", "properties": {"norad_id": 34451, "name": "COSMOS 2251 DEB", "group": "cosmos-2251-debris", "lat": 59.08869027361764, "lon": 86.16045281758412, "alt_km": 555.3067183118837, "timestamp": "2025-12-27T17:24:57.802082+00:00", "meta": {"OBJECT_NAME": "COSMOS 2251 DEB", "OBJECT_ID": "1993-036SU", "EPOCH": "2025-12-27T05:54:15.397920", "MEAN_MOTION": 14.96406014, "ECCENTRICITY": 0.002389, "INCLINATION": 74.0458, "RA_OF_ASC_NODE": 58.5881, "ARG_OF_PERICENTER": 69.5037, "MEAN_ANOMALY": 290.8709, "EPHEMERIS_TYPE": 0, "CLASSIFICATION_TYPE": "U", "NORAD_CAT_ID": 34451, "ELEMENT_SET_NO": 999, "REV_AT_EPOCH": 88852, "BSTAR": 0.0028656, "MEAN_MOTION_DOT": 0.00032787, "MEAN_MOTION_DDOT": 0}, "tle": {"line1": "1 34451U 93036SU  25361.24601155  .00032787  00000+0  28656-2 0  9994", "line2": "2 34451  74.0458  58.5881 0023890  69.5037 290.8709 14.96406014888525"}}, "geometry": {"type": "Point", "coordinates": [86.16045281758412, 59.08869027361764]}}, {"type": "Feature", "properties": {"norad_id": 34452, "name": "COSMOS 2251 DEB", "group": "cosmos-2251-debris", "lat": -64.38402462708038, "lon": 115.12038923940473, "alt_km": 518.160173441147, "timestamp": "2025-12-27T17:24:57.802092+00:00", "meta": {"OBJECT_NAME": "COSMOS 2251 DEB", "OBJECT_ID": "1993-036SV", "EPOCH": "2025-12-27T09:55:11.436384", "MEAN_MOTION": 15.1212038, "ECCENTRICITY": 0.0063713, "INCLINATION": 74.0315, "RA_OF_ASC_NODE": 152.4388, "ARG_OF_PERICENTER": 225.4442, "MEAN_ANOMALY": 164.6763, "EPHEMERIS_TYPE": 0, "CLASSIFICATION_TYPE": "U", "NORAD_CAT_ID": 34452, "ELEMENT_SET_NO": 999, "REV_AT_EPOCH": 90884, "BSTAR": 0.0011018, "MEAN_MOTION_DOT": 0.00019955, "MEAN_MOTION_DDOT": 0}, "tle": {"line1": "1 34452U 93036SV  25361.41332681  .00019955  00000+0  11018-2 0  9995", "line2": "2 34452  74.0315 152.4388 0063713 225.4442 164.6763 15.12120380908849"}}, "geometry": {"type": "Point", "coordinates": [115.12038923940473, -64.38402462708038]}}, {"type": "Feature", "properties": {"norad_id": 34454, "name": "COSMOS 2251 DEB", "group": "cosmos-2251-debris", "lat": -13.48720927301484, "lon": -113.89168446890943, "alt_km": 745.8374823047016, "timestamp": "2025-12-27T17:24:57.802102+00:00", "meta": {"OBJECT_NAME": "COSMOS 2251 DEB", "OBJECT_ID": "1993-036SX", "EPOCH": "2025-12-27T02:27:45.241344", "MEAN_MOTION": 14.38830581, "ECCENTRICITY": 0.00360198, "INCLINATION": 74.0581, "RA_OF_ASC_NODE": 251.1864, "ARG_OF_PERICENTER": 310.9053, "MEAN_ANOMALY": 48.8983, "EPHEMERIS_TYPE": 0, "CLASSIFICATION_TYPE": "U", "NORAD_CAT_ID": 34454, "ELEMENT_SET_NO": 999, "REV_AT_EPOCH": 88274, "BSTAR": 0.00024553519, "MEAN_MOTION_DOT": 7.34e-06, "MEAN_MOTION_DDOT": 0}, "tle": {"line1": "1 34454U 93036SX  25361.10260696  .00000734  00000+0  24554-3 0  9994", "line2": "2 34454  74.0581 251.1864 0036019 310.9053  48.8983 14.38830581882744"}}, "geometry": {"type": "Point", "coordinates": [-113.89168446890943, -13.48720927301484]}}, {"type": "Feature", "properties": {"norad_id": 34459, "name": "COSMOS 2251 DEB", "group": "cosmos-2251-debris", "lat": 71.45115429752802, "lon": -73.56172591142371, "alt_km": 999.5433396615408, "timestamp": "2025-12-27T17:24:57.802113+00:00", "meta": {"OBJECT_NAME": "COSMOS 2251 DEB", "OBJECT_ID": "1993-036TC", "EPOCH": "2025-12-26T08:27:30.265632", "MEAN_MOTION": 14.005194, "ECCENTRICITY": 0.0192136, "INCLINATION": 74.0778, "RA_OF_ASC_NODE": 230.5206, "ARG_OF_PERICENTER": 297.2174, "MEAN_ANOMALY": 60.9494, "EPHEMERIS_TYPE": 0, "CLASSIFICATION_TYPE": "U", "NORAD_CAT_ID": 34459, "ELEMENT_SET_NO": 999, "REV_AT_EPOCH": 85902, "BSTAR": 0.00034258, "MEAN_MOTION_DOT": 5.72e-06, "MEAN_MOTION_DDOT": 0}, "tle": {"line1": "1 34459U 93036TC  25360.35243363  .00000572  00000+0  34258-3 0  9999", "line2": "2 34459  74.0778 230.5206 0192136 297.2174  60.9494 14.00519400859022"}}, "geometry": {"type": "Point", "coordinates": [-73.56172591142371, 71.45115429752802]}}, {"type": "Feature", "properties": {"norad_id": 34464, "name": "COSMOS 2251 DEB", "group": "cosmos-2251-debris", "lat": -69.11365325064097, "lon": -84.81620049627901, "alt_km": 476.9860750087746, "timestamp": "2025-12-27T17:24:57.802123+00:00", "meta": {"OBJECT_NAME": "COSMOS 2251 DEB", "OBJECT_ID": "1993-036TH", "EPOCH": "2025-12-27T10:01:03.881856", "MEAN_MOTION": 15.29201701, "ECCENTRICITY": 0.0013118, "INCLINATION": 73.9892, "RA_OF_ASC_NODE": 47.0322, "ARG_OF_PERICENTER": 229.5183, "MEAN_ANOMALY": 130.4877, "EPHEMERIS_TYPE": 0, "CLASSIFICATION_TYPE": "U", "NORAD_CAT_ID": 34464, "ELEMENT_SET_NO": 999, "REV_AT_EPOCH": 90064, "BSTAR": 0.0027905, "MEAN_MOTION_DOT": 0.00080113, "MEAN_MOTION_DDOT": 0}, "tle": {"line1": "1 34464U 93036TH  25361.41740604  .00080113  00000+0  27905-2 0  9992", "line2": "2 34464  73.9892  47.0322 0013118 229.5183 130.4877 15.29201701900640"}}, "geometry": {"type": "Point", "coordinates": [-84.81620049627901, -69.11365325064097]}}, {"type": "Feature", "properties": {"norad_id": 34468, "name": "COSMOS 2251 DEB", "group": "cosmos-2251-debris", "lat": 69.5817959274658, "lon": -141.2357429834245, "alt_km": 759.4171352664243, "timestamp": "2025-12-27T17:24:57.802133+00:00", "meta": {"OBJECT_NAME": "COSMOS 2251 DEB", "OBJECT_ID": "1993-036TM", "EPOCH": "2025-12-27T06:59:07.416384", "MEAN_MOTION": 14.47664759, "ECCENTRICITY": 0.0076195, "INCLINATION": 74.0132, "RA_OF_ASC_NODE": 89.9428, "ARG_OF_PERICENTER": 231.9281, "MEAN_ANOMALY": 127.4989, "EPHEMERIS_TYPE": 0, "CLASSIFICATION_TYPE": "U", "NORAD_CAT_ID": 34468, "ELEMENT_SET_NO": 999, "REV_AT_EPOCH": 88672, "BSTAR": 0.00041105, "MEAN_MOTION_DOT": 1.543e-05, "MEAN_MOTION_DDOT": 0}, "tle": {"line1": "1 34468U 93036TM  25361.29105806  .00001543  00000+0  41105-3 0  9990", "line2": "2 34468  74.0132  89.9428 0076195 231.9281 127.4989 14.47664759886722"}}, "geometry": {"type": "Point", "coordinates": [-141.2357429834245, 69.5817959274658]}}]}